[{"OBJECT_NAME":"OBJECT A","OBJECT_ID":"2025-013A","EPOCH":"2026-03-09T23:29:31.895232","MEAN_MOTION":15.29260221,"ECCENTRICITY":0.0010321,"INCLINATION":97.6364,"RA_OF_ASC_NODE":244.5149,"ARG_OF_PERICENTER":282.3775,"MEAN_ANOMALY":77.6309,"EPHEMERIS_TYPE":0,"CLASSIFICATION_TYPE":"U","NORAD_CAT_ID":62729,"ELEMENT_SET_NO":999,"REV_AT_EPOCH":6276,"BSTAR":0.0013206527,"MEAN_MOTION_DOT":0.00037616,"MEAN_MOTION_DDOT":0},{"OBJECT_NAME":"STARLINK-34855","OBJECT_ID":"2025-192N","EPOCH":"2026-03-09T17:20:13.620768","MEAN_MOTION":15.30192662,"ECCENTRICITY":0.00014519,"INCLINATION":53.1598,"RA_OF_ASC_NODE":232.5949,"ARG_OF_PERICENTER":55.9663,"MEAN_ANOMALY":304.1475,"EPHEMERIS_TYPE":0,"CLASSIFICATION_TYPE":"U","NORAD_CAT_ID":65416,"ELEMENT_SET_NO":999,"REV_AT_EPOCH":2938,"BSTAR":0.0010857961,"MEAN_MOTION_DOT":0.0003193,"MEAN_MOTION_DDOT":0}]
